# Made by eph2tle, compiled Sep 29 2024 11:19:35
# Run at Tue Oct 15 13:14:47 2024
#
# Max error 0.007 (Should ensure we ID Europa Clipper and its Falcon
#   Heavy booster separately.  They're only about 0.012 degrees apart.)
#
# No updates      (this will be ~mag 25 near the end of the ephems)
#
#    The following TLEs (Two-Line Elements) were generated by fitting
# a numerically-integrated ephemeris,  based on the orbit given below,
# to the SDP4/SGP4 models.  Each TLE is good for the interval between
# its epoch and the epoch of the subsequent TLE (usually one day).
# The maximum deviation between the numerically integrated ephemerides
# and the TLE-based ephemeris, in kilometers,  is given for each TLE
# as the "worst residual".
#
#    This fitting is done using the 'eph2tle' code packaged with Find_Orb.
# The code has details on how the TLEs were computed :
#
#    https://github.com/Bill-Gray/find_orb/eph2tle.cpp
#
#    Be warned:  the error given is that between the numerically
# integrated ephems and the TLE model.  There will usually be at
# least some additional difference between the ephems and the actual
# motion of the satellite,  especially if the ephemerides are based
# on a short arc.  If the following orbital elements say something
# like "[based on] 10 observations 2015 Jan. 1-13",  and the TLEs
# are for 2015 May,  the extrapolation may be tenuous at best.  If
# your application requires a specific level of accuracy,  you may
# want to contact me;  I can give you some idea as to the fit of the
# underlying data (and possibly TLEs based on newer data).
#
#   You can usually find the underlying observational data,  and the
# fitted orbit,  residuals,  ephemerides,  and sometimes some comments
# about the object,  among the pages listed at
#
#    https://www.projectpluto.com/pluto/mpecs/pseudo.htm
#
#    WARNING:  for this object,  "normal" TLEs cannot be fitted.  (This
# usually means an object with an hyperbolic or nearly-parabolic orbit.)
# For this and similar cases,   an alternative model is used,  in which
# most of the traditional TLE data is replaced by six signed 8-digit hex
# numbers.  These six numbers are a state vector,  numerically integrated
# using a simplified force model.  This is necessary for objects at L2 or
# L1,  and sometimes for objects in high orbits where the SDP4/SGP4 model
# fails.  Some documentation is in 'get_el.cpp' in the source code at
# https://www.github.com/Bill-Gray/sat_code ; look for 'hex' in that file,
# with the actual integration done in 'sdp4.cpp'.  But be aware:  it's my
# own extension,  doesn't work with other code,  and is therefore used
# only when necessary.
#
#    Also,  if you use a TLE outside the "correct" time range (between
# its MJD and that of the next TLE),  all bets are off.  I've carefully
# computed and minimized the worst error over the "correct" time frame,
# but the ephemeris may (or may not) diverge wildly outside of it.
#
# Ephem range: 60598.000000 60638.000000 1.000000
# Created Tue Oct 15 13:14:44 2024
# Ephemeris start: 15 Oct 2024  0:00:00
# Ephemeris end:   24 Nov 2024  0:00:00
# Times are all TDT
# Positions/velocities are in equatorial J2000
# Orbital elements:  2024-182B = NORAD 61508 = Falcon Heavy-011 Stage 2
#    Perigee 2024 Oct 14.7056 +/- 5.07e-5 TT = 16:56:03 (JD 2460598.2056)
# Epoch 2024 Oct 15.0 TT = JDT 2460598.5                           Find_Orb
# q  6573.6159 +/- 2.7                (J2000 equator)
# H   25.66 G 0.15                    Peri.  302.2182 +/- 0.008
#                                     Node    63.3530 +/- 0.0053
# e   1.670170 +/- 0.000395           Incl.   32.9651 +/- 0.0012
# From 59 observations 2024 Oct. 14-15 (15.4 hr); mean residual 0".410
#
# 1 NoradU COSPAR   Epoch.epoch     dn/dt/2  d2n/dt2/6 BSTAR    T El# C
# 2 NoradU Inclina RAAscNode Eccent  ArgPeri MeanAno  MeanMotion Rev# C

# Worst residual: 12.96 km
# MJD 60598.000000 (2024 Oct 15  0:00)
2024-182B = NORAD 61508 = Falcon Heavy-011 Stage 2
1 61508U 24182B   24288.99919926 -001IAFGH +0026G39U +001HWZGTH 24803
2 61508                          -000LOKZD +000QQQCT +000K7RGK     00

# Worst residual: 10.29 km
# MJD 60599.000000 (2024 Oct 16  0:00)
2024-182B = NORAD 61508 = Falcon Heavy-011 Stage 2
1 61508U 24182B   24289.99919926 -006KZYLY +008F0WIE +0067ZV24H 24805
2 61508                          -000KXQYO +000PP8F4 +000JH1Y7     03

# Worst residual: 2.37 km
# MJD 60600.000000 (2024 Oct 17  0:00)
2024-182B = NORAD 61508 = Falcon Heavy-011 Stage 2
1 61508U 24182B   24290.99919926 -00BLE7AP +00EK9KUN +00AVNGKNH 24800
2 61508                          -000KU9QO +000PJB58 +000JCPYV     05

# Worst residual: 1.68 km
# MJD 60601.000000 (2024 Oct 18  0:00)
2024-182B = NORAD 61508 = Falcon Heavy-011 Stage 2
1 61508U 24182B   24291.99919926 -00GLAOP0 +00KOHBIT +00FIKC1PH 24806
2 61508                          -000KT2KU +000PFZD7 +000JACO7     09

# Worst residual: 1.50 km
# MJD 60602.000000 (2024 Oct 19  0:00)
2024-182B = NORAD 61508 = Falcon Heavy-011 Stage 2
1 61508U 24182B   24292.99919926 -00LKZLPM +00QRZ1V2 +00K4YY0CH 24803
2 61508                          -000KSDXB +000PD5F5 +000J8DZS     01

# Worst residual: 1.64 km
# MJD 60603.000000 (2024 Oct 20  0:00)
2024-182B = NORAD 61508 = Falcon Heavy-011 Stage 2
1 61508U 24182B   24293.99919926 -00QKIVIA +00WUSJEX +00OQWVMIH 24807
2 61508                          -000KRPNT +000PABYC +000J6GKX     09

# Worst residual: 2.08 km
# MJD 60604.000000 (2024 Oct 21  0:00)
2024-182B = NORAD 61508 = Falcon Heavy-011 Stage 2
1 61508U 24182B   24294.99919926 -00VJVJMT +012WX6M7 +00TCDUFAH 24804
2 61508                          -000KQTYB +000P7E1W +000J4G8W     03

# Worst residual: 2.70 km
# MJD 60605.000000 (2024 Oct 22  0:00)
2024-182B = NORAD 61508 = Falcon Heavy-011 Stage 2
1 61508U 24182B   24295.99919926 -010IZABX +018YBR7B +00XXCYFIH 24806
2 61508                          -000KPMP8 +000P4APE +000J2BPH     07

# Worst residual: 3.31 km
# MJD 60606.000000 (2024 Oct 23  0:00)
2024-182B = NORAD 61508 = Falcon Heavy-011 Stage 2
1 61508U 24182B   24296.99919926 -015HR0ST +01EYYZAM +012HT601H 24807
2 61508                          -000KO1JO +000P12BK +000J02RN     09

# Worst residual: 3.79 km
# MJD 60607.000000 (2024 Oct 24  0:00)
2024-182B = NORAD 61508 = Falcon Heavy-011 Stage 2
1 61508U 24182B   24297.99919926 -01AG386M +01KYTR6M +0171PFXXH 24805
2 61508                          -000KM11C +000OXPTX +000IXPNV     05

# Worst residual: 4.11 km
# MJD 60608.000000 (2024 Oct 25  0:00)
2024-182B = NORAD 61508 = Falcon Heavy-011 Stage 2
1 61508U 24182B   24298.99919926 -01FDW3DI +01QXV86G +01BL0TYVH 24802
2 61508                          -000KJK7C +000OUACY +000IV8SY     08

# Worst residual: 4.32 km
# MJD 60609.000000 (2024 Oct 26  0:00)
2024-182B = NORAD 61508 = Falcon Heavy-011 Stage 2
1 61508U 24182B   24299.99919926 -01KB1M66 +01WW2TMK +01G3QHPYH 24804
2 61508                          -000KGMCJ +000OQT3H +000ISOOI     06

# Worst residual: 4.50 km
# MJD 60610.000000 (2024 Oct 27  0:00)
2024-182B = NORAD 61508 = Falcon Heavy-011 Stage 2
1 61508U 24182B   24300.99919926 -01P7FN30 +022TG9BM +01KLTP90H 24800
2 61508                          -000KD6XM +000ONB9M +000IQ1TJ     09

# Worst residual: 4.72 km
# MJD 60611.000000 (2024 Oct 28  0:00)
2024-182B = NORAD 61508 = Falcon Heavy-011 Stage 2
1 61508U 24182B   24301.99919926 -01U2XWJC +028PZJR1 +01P39VANH 24804
2 61508                          -000K99JP +000OJU4B +000INCS0     05

# Worst residual: 5.00 km
# MJD 60612.000000 (2024 Oct 29  0:00)
2024-182B = NORAD 61508 = Falcon Heavy-011 Stage 2
1 61508U 24182B   24302.99919926 -01YXG1VF +02ELP09F +01TK2JGMH 24804
2 61508                          -000K4TVY +000OGEX2 +000IKM4I     03

# Worst residual: 5.35 km
# MJD 60613.000000 (2024 Oct 30  0:00)
2024-182B = NORAD 61508 = Falcon Heavy-011 Stage 2
1 61508U 24182B   24303.99919926 -023QTOB0 +02KGL95F +01Y07EBIH 24808
2 61508                          -000JZVRJ +000OD2XI +000IHUFR     05

# Worst residual: 5.72 km
# MJD 60614.000000 (2024 Oct 31  0:00)
2024-182B = NORAD 61508 = Falcon Heavy-011 Stage 2
1 61508U 24182B   24304.99919926 -028IYBWW +02QAP7LD +022FO9EPH 24802
2 61508                          -000JUF3R +000O9VEK +000IF2AA     07

# Worst residual: 6.09 km
# MJD 60615.000000 (2024 Nov  1  0:00)
2024-182B = NORAD 61508 = Falcon Heavy-011 Stage 2
1 61508U 24182B   24305.99919926 -02D9PKLG +02W423EB +026UH348H 24806
2 61508                          -000JOFXT +000O6TJQ +000ICA7Z     06

# Worst residual: 6.42 km
# MJD 60616.000000 (2024 Nov  2  0:00)
2024-182B = NORAD 61508 = Falcon Heavy-011 Stage 2
1 61508U 24182B   24306.99919926 -02HYYYYH +031WPEJU +02B8LYGVH 24808
2 61508                          -000JHYE9 +000O3YI9 +000I9IRG     03

# Worst residual: 6.72 km
# MJD 60617.000000 (2024 Nov  3  0:00)
2024-182B = NORAD 61508 = Falcon Heavy-011 Stage 2
1 61508U 24182B   24307.99919926 -02MMM512 +037OOWLZ +02FM32SBH 24800
2 61508                          -000JAYO9 +000O1BCI +000I6SDW     09

# Worst residual: 7.00 km
# MJD 60618.000000 (2024 Nov  4  0:00)
2024-182B = NORAD 61508 = Falcon Heavy-011 Stage 2
1 61508U 24182B   24308.99919926 -02R8IQS7 +03DG2LYE +02JYWRB7H 24805
2 61508                          -000J3H0O +000NYX1N +000I43IQ     04

# Worst residual: 7.27 km
# MJD 60619.000000 (2024 Nov  5  0:00)
2024-182B = NORAD 61508 = Falcon Heavy-011 Stage 2
1 61508U 24182B   24309.99919926 -02VSKIEJ +03J6WQZF +02OB3EROH 24801
2 61508                          -000IVHOW +000NWSHB +000I1GJL     04

# Worst residual: 7.52 km
# MJD 60620.000000 (2024 Nov  6  0:00)
2024-182B = NORAD 61508 = Falcon Heavy-011 Stage 2
1 61508U 24182B   24310.99919926 -030AN8BJ +03OX9RAJ +02SMNIXLH 24802
2 61508                          -000IN0Y3 +000NUYFT +000HYVS9     05

